CCSDS_OMM_VERS = 2.0
CREATION_DATE  = 
ORIGINATOR     = 

OBJECT_NAME    = STARLINK-1614
OBJECT_ID      = 2020-057H
CENTER_NAME    = EARTH
REF_FRAME      = TEME
TIME_SYSTEM    = UTC
MEAN_ELEMENT_THEORY = SGP/SGP4

EPOCH          = 2020-09-09T12:00:00.999648
MEAN_MOTION    = 15.62769879
ECCENTRICITY   = .0004367
INCLINATION    = 52.9998
RA_OF_ASC_NODE = 332.7340
ARG_OF_PERICENTER = 282.2291
MEAN_ANOMALY   = 193.8210

EPHEMERIS_TYPE = 0
CLASSIFICATION_TYPE = U
NORAD_CAT_ID   = 46124
ELEMENT_SET_NO = 999
REV_AT_EPOCH   = 412
BSTAR          = -.55556E-4
MEAN_MOTION_DOT = -5.628E-5
MEAN_MOTION_DDOT = 0

CCSDS_OMM_VERS = 2.0
CREATION_DATE  = 
ORIGINATOR     = 

OBJECT_NAME    = STARLINK-1618
OBJECT_ID      = 2020-057J
CENTER_NAME    = EARTH
REF_FRAME      = TEME
TIME_SYSTEM    = UTC
MEAN_ELEMENT_THEORY = SGP/SGP4

EPOCH          = 2020-09-09T12:00:00.999648
MEAN_MOTION    = 15.62811039
ECCENTRICITY   = .0001438
INCLINATION    = 52.9996
RA_OF_ASC_NODE = 332.7532
ARG_OF_PERICENTER = 47.9620
MEAN_ANOMALY   = 54.6650

EPHEMERIS_TYPE = 0
CLASSIFICATION_TYPE = U
NORAD_CAT_ID   = 46125
ELEMENT_SET_NO = 999
REV_AT_EPOCH   = 412
BSTAR          = -.66425E-3
MEAN_MOTION_DOT = -6.1039E-4
MEAN_MOTION_DDOT = 0

CCSDS_OMM_VERS = 2.0
CREATION_DATE  = 
ORIGINATOR     = 

OBJECT_NAME    = STARLINK-1619
OBJECT_ID      = 2020-057K
CENTER_NAME    = EARTH
REF_FRAME      = TEME
TIME_SYSTEM    = UTC
MEAN_ELEMENT_THEORY = SGP/SGP4

EPOCH          = 2020-09-09T12:00:00.999648
MEAN_MOTION    = 15.62765476
ECCENTRICITY   = .0001287
INCLINATION    = 52.9992
RA_OF_ASC_NODE = 332.7477
ARG_OF_PERICENTER = 55.4023
MEAN_ANOMALY   = 50.9941

EPHEMERIS_TYPE = 0
CLASSIFICATION_TYPE = U
NORAD_CAT_ID   = 46126
ELEMENT_SET_NO = 999
REV_AT_EPOCH   = 412
BSTAR          = .10455E-4
MEAN_MOTION_DOT = 4.23E-6
MEAN_MOTION_DDOT = 0

CCSDS_OMM_VERS = 2.0
CREATION_DATE  = 
ORIGINATOR     = 

OBJECT_NAME    = STARLINK-1621
OBJECT_ID      = 2020-057L
CENTER_NAME    = EARTH
REF_FRAME      = TEME
TIME_SYSTEM    = UTC
MEAN_ELEMENT_THEORY = SGP/SGP4

EPOCH          = 2020-09-09T06:00:00.999648
MEAN_MOTION    = 15.63874994
ECCENTRICITY   = .0001998
INCLINATION    = 52.9996
RA_OF_ASC_NODE = 333.9445
ARG_OF_PERICENTER = 319.8577
MEAN_ANOMALY   = 192.9744

EPHEMERIS_TYPE = 0
CLASSIFICATION_TYPE = U
NORAD_CAT_ID   = 46127
ELEMENT_SET_NO = 999
REV_AT_EPOCH   = 154
BSTAR          = .15471E-3
MEAN_MOTION_DOT = 1.4287E-4
MEAN_MOTION_DDOT = 0

CCSDS_OMM_VERS = 2.0
CREATION_DATE  = 
ORIGINATOR     = 

OBJECT_NAME    = STARLINK-1622
OBJECT_ID      = 2020-057M
CENTER_NAME    = EARTH
REF_FRAME      = TEME
TIME_SYSTEM    = UTC
MEAN_ELEMENT_THEORY = SGP/SGP4

EPOCH          = 2020-09-09T06:00:00.999648
MEAN_MOTION    = 15.66082135
ECCENTRICITY   = .0000996
INCLINATION    = 52.9979
RA_OF_ASC_NODE = 333.6314
ARG_OF_PERICENTER = 47.2293
MEAN_ANOMALY   = 252.8440

EPHEMERIS_TYPE = 0
CLASSIFICATION_TYPE = U
NORAD_CAT_ID   = 46128
ELEMENT_SET_NO = 999
REV_AT_EPOCH   = 177
BSTAR          = .20750E-3
MEAN_MOTION_DOT = 2.1176E-4
MEAN_MOTION_DDOT = 0

CCSDS_OMM_VERS = 2.0
CREATION_DATE  = 
ORIGINATOR     = 

OBJECT_NAME    = STARLINK-1623
OBJECT_ID      = 2020-057N
CENTER_NAME    = EARTH
REF_FRAME      = TEME
TIME_SYSTEM    = UTC
MEAN_ELEMENT_THEORY = SGP/SGP4

EPOCH          = 2020-09-09T06:00:00.999648
MEAN_MOTION    = 15.62361832
ECCENTRICITY   = .0007513
INCLINATION    = 53.0020
RA_OF_ASC_NODE = 333.9906
ARG_OF_PERICENTER = 303.2055
MEAN_ANOMALY   = 201.4945

EPHEMERIS_TYPE = 0
CLASSIFICATION_TYPE = U
NORAD_CAT_ID   = 46129
ELEMENT_SET_NO = 999
REV_AT_EPOCH   = 177
BSTAR          = .18540E-2
MEAN_MOTION_DOT = 1.7039E-3
MEAN_MOTION_DDOT = 0

CCSDS_OMM_VERS = 2.0
CREATION_DATE  = 
ORIGINATOR     = 

OBJECT_NAME    = STARLINK-1624
OBJECT_ID      = 2020-057P
CENTER_NAME    = EARTH
REF_FRAME      = TEME
TIME_SYSTEM    = UTC
MEAN_ELEMENT_THEORY = SGP/SGP4

EPOCH          = 2020-09-09T12:00:00.999648
MEAN_MOTION    = 15.62714547
ECCENTRICITY   = .0001813
INCLINATION    = 53.0001
RA_OF_ASC_NODE = 332.7262
ARG_OF_PERICENTER = 313.7786
MEAN_ANOMALY   = 168.6922

EPHEMERIS_TYPE = 0
CLASSIFICATION_TYPE = U
NORAD_CAT_ID   = 46130
ELEMENT_SET_NO = 999
REV_AT_EPOCH   = 412
BSTAR          = .26715E-4
MEAN_MOTION_DOT = 1.908E-5
MEAN_MOTION_DDOT = 0

CCSDS_OMM_VERS = 2.0
CREATION_DATE  = 
ORIGINATOR     = 

OBJECT_NAME    = STARLINK-1625
OBJECT_ID      = 2020-057Q
CENTER_NAME    = EARTH
REF_FRAME      = TEME
TIME_SYSTEM    = UTC
MEAN_ELEMENT_THEORY = SGP/SGP4

EPOCH          = 2020-09-09T06:00:00.999648
MEAN_MOTION    = 15.66268045
ECCENTRICITY   = .0001529
INCLINATION    = 52.9986
RA_OF_ASC_NODE = 333.6353
ARG_OF_PERICENTER = 65.5127
MEAN_ANOMALY   = 239.8183

EPHEMERIS_TYPE = 0
CLASSIFICATION_TYPE = U
NORAD_CAT_ID   = 46131
ELEMENT_SET_NO = 999
REV_AT_EPOCH   = 182
BSTAR          = .22920E-3
MEAN_MOTION_DOT = 2.3635E-4
MEAN_MOTION_DDOT = 0

CCSDS_OMM_VERS = 2.0
CREATION_DATE  = 
ORIGINATOR     = 

OBJECT_NAME    = STARLINK-1630
OBJECT_ID      = 2020-057R
CENTER_NAME    = EARTH
REF_FRAME      = TEME
TIME_SYSTEM    = UTC
MEAN_ELEMENT_THEORY = SGP/SGP4

EPOCH          = 2020-09-09T12:00:00.999648
MEAN_MOTION    = 15.62788510
ECCENTRICITY   = .0001254
INCLINATION    = 53.0004
RA_OF_ASC_NODE = 332.7491
ARG_OF_PERICENTER = 50.2231
MEAN_ANOMALY   = 58.8354

EPHEMERIS_TYPE = 0
CLASSIFICATION_TYPE = U
NORAD_CAT_ID   = 46132
ELEMENT_SET_NO = 999
REV_AT_EPOCH   = 412
BSTAR          = -.70071E-3
MEAN_MOTION_DOT = -6.4277E-4
MEAN_MOTION_DDOT = 0

CCSDS_OMM_VERS = 2.0
CREATION_DATE  = 
ORIGINATOR     = 

OBJECT_NAME    = STARLINK-1637
OBJECT_ID      = 2020-057S
CENTER_NAME    = EARTH
REF_FRAME      = TEME
TIME_SYSTEM    = UTC
MEAN_ELEMENT_THEORY = SGP/SGP4

EPOCH          = 2020-09-09T06:00:00.999648
MEAN_MOTION    = 15.66276573
ECCENTRICITY   = .0002280
INCLINATION    = 52.9982
RA_OF_ASC_NODE = 333.5996
ARG_OF_PERICENTER = 309.4367
MEAN_ANOMALY   = 9.5331

EPHEMERIS_TYPE = 0
CLASSIFICATION_TYPE = U
NORAD_CAT_ID   = 46133
ELEMENT_SET_NO = 999
REV_AT_EPOCH   = 177
BSTAR          = .19984E-3
MEAN_MOTION_DOT = 2.0536E-4
MEAN_MOTION_DDOT = 0

CCSDS_OMM_VERS = 2.0
CREATION_DATE  = 
ORIGINATOR     = 

OBJECT_NAME    = STARLINK-1638
OBJECT_ID      = 2020-057T
CENTER_NAME    = EARTH
REF_FRAME      = TEME
TIME_SYSTEM    = UTC
MEAN_ELEMENT_THEORY = SGP/SGP4

EPOCH          = 2020-09-09T06:00:00.999648
MEAN_MOTION    = 15.62776388
ECCENTRICITY   = .0004689
INCLINATION    = 53.0006
RA_OF_ASC_NODE = 333.9892
ARG_OF_PERICENTER = 281.9128
MEAN_ANOMALY   = 212.8797

EPHEMERIS_TYPE = 0
CLASSIFICATION_TYPE = U
NORAD_CAT_ID   = 46134
ELEMENT_SET_NO = 999
REV_AT_EPOCH   = 177
BSTAR          = .26129E-3
MEAN_MOTION_DOT = 2.3489E-4
MEAN_MOTION_DDOT = 0

CCSDS_OMM_VERS = 2.0
CREATION_DATE  = 
ORIGINATOR     = 

OBJECT_NAME    = STARLINK-1639
OBJECT_ID      = 2020-057U
CENTER_NAME    = EARTH
REF_FRAME      = TEME
TIME_SYSTEM    = UTC
MEAN_ELEMENT_THEORY = SGP/SGP4

EPOCH          = 2020-09-09T06:00:00.999648
MEAN_MOTION    = 15.62737464
ECCENTRICITY   = .0000992
INCLINATION    = 52.9997
RA_OF_ASC_NODE = 333.9441
ARG_OF_PERICENTER = 59.5623
MEAN_ANOMALY   = 94.4115

EPHEMERIS_TYPE = 0
CLASSIFICATION_TYPE = U
NORAD_CAT_ID   = 46135
ELEMENT_SET_NO = 999
REV_AT_EPOCH   = 177
BSTAR          = -.11957E-3
MEAN_MOTION_DOT = -1.146E-4
MEAN_MOTION_DDOT = 0

